[{"OBJECT_NAME":"STARLINK-4576","OBJECT_ID":"2022-101AR","EPOCH":"2026-03-09T06:44:30.477984","MEAN_MOTION":15.08840979,"ECCENTRICITY":0.00015019,"INCLINATION":53.2191,"RA_OF_ASC_NODE":55.9433,"ARG_OF_PERICENTER":90.7468,"MEAN_ANOMALY":269.3696,"EPHEMERIS_TYPE":0,"CLASSIFICATION_TYPE":"U","NORAD_CAT_ID":53566,"ELEMENT_SET_NO":999,"REV_AT_EPOCH":19707,"BSTAR":-2.7689918e-5,"MEAN_MOTION_DOT":-7.29e-6,"MEAN_MOTION_DDOT":0},{"OBJECT_NAME":"CZ-4B DEB","OBJECT_ID":"2004-035K","EPOCH":"2026-03-08T06:51:30.377664","MEAN_MOTION":15.09293825,"ECCENTRICITY":0.00031468,"INCLINATION":97.5843,"RA_OF_ASC_NODE":91.2716,"ARG_OF_PERICENTER":107.6302,"MEAN_ANOMALY":252.527,"EPHEMERIS_TYPE":0,"CLASSIFICATION_TYPE":"U","NORAD_CAT_ID":29043,"ELEMENT_SET_NO":999,"REV_AT_EPOCH":10418,"BSTAR":0.00031897975,"MEAN_MOTION_DOT":5.021e-5,"MEAN_MOTION_DDOT":0}]
